{"type": "FeatureCollection", "features": [ {"type": "Feature", "properties": {"norad_id": 66483, "name": "STARLINK-35654", "group": "last-30-days", "lat": 3.7806084778959046, "lon": 92.80487159706739, "alt_km": 413.83176323979205, "timestamp": "2025-12-09T16:56:35.358395+00:00", "meta": {"OBJECT_NAME": "STARLINK-35654", "OBJECT_ID": "2025-262AD", "EPOCH": "2025-12-09T10:44:08.468736", "MEAN_MOTION": 15.50599226, "ECCENTRICITY": 0.0001248, "INCLINATION": 43.0001, "RA_OF_ASC_NODE": 90.2518, "ARG_OF_PERICENTER": 291.9992, "MEAN_ANOMALY": 68.0736, "EPHEMERIS_TYPE": 0, "CLASSIFICATION_TYPE": "U", "NORAD_CAT_ID": 66483, "ELEMENT_SET_NO": 999, "REV_AT_EPOCH": 505, "BSTAR": 0.0016829, "MEAN_MOTION_DOT": 0.00099727, "MEAN_MOTION_DDOT": 0}, "tle": {"line1": "1 66483U 25262AD  25343.44732024  .00099727  00000+0  16829-2 0  9998", "line2": "2 66483  43.0001  90.2518 0001248 291.9992  68.0736 15.50599226  5052"}}, "geometry": {"type": "Point", "coordinates": [92.80487159706739, 3.7806084778959046]}}, {"type": "Feature", "properties": {"norad_id": 66484, "name": "STARLINK-35371", "group": "last-30-days", "lat": 5.135887198390708, "lon": 94.26892935145644, "alt_km": 418.4628910018728, "timestamp": "2025-12-09T16:56:35.358405+00:00", "meta": {"OBJECT_NAME": "STARLINK-35371", "OBJECT_ID": "2025-262AE", "EPOCH": "2025-12-09T10:43:37.777728", "MEAN_MOTION": 15.5062674, "ECCENTRICITY": 0.0009086, "INCLINATION": 42.9996, "RA_OF_ASC_NODE": 90.2494, "ARG_OF_PERICENTER": 144.0106, "MEAN_ANOMALY": 216.1368, "EPHEMERIS_TYPE": 0, "CLASSIFICATION_TYPE": "U", "NORAD_CAT_ID": 66484, "ELEMENT_SET_NO": 999, "REV_AT_EPOCH": 505, "BSTAR": 0.0011012, "MEAN_MOTION_DOT": 0.00065005, "MEAN_MOTION_DDOT": 0}, "tle": {"line1": "1 66484U 25262AE  25343.44696502  .00065005  00000+0  11012-2 0  9990", "line2": "2 66484  42.9996  90.2494 0009086 144.0106 216.1368 15.50626740  5059"}}, "geometry": {"type": "Point", "coordinates": [94.26892935145644, 5.135887198390708]}}, {"type": "Feature", "properties": {"norad_id": 66485, "name": "STARLINK-34774", "group": "last-30-days", "lat": -36.82157431008007, "lon": 16.387102803250635, "alt_km": 428.1386356547673, "timestamp": "2025-12-09T16:56:35.358419+00:00", "meta": {"OBJECT_NAME": "STARLINK-34774", "OBJECT_ID": "2025-263A", "EPOCH": "2025-12-09T12:00:02.000160", "MEAN_MOTION": 15.47851078, "ECCENTRICITY": 9.9e-05, "INCLINATION": 43.0003, "RA_OF_ASC_NODE": 144.1274, "ARG_OF_PERICENTER": 265.0389, "MEAN_ANOMALY": 267.882, "EPHEMERIS_TYPE": 0, "CLASSIFICATION_TYPE": "U", "NORAD_CAT_ID": 66485, "ELEMENT_SET_NO": 999, "REV_AT_EPOCH": 511, "BSTAR": -0.044237, "MEAN_MOTION_DOT": -0.02091961, "MEAN_MOTION_DDOT": 0}, "tle": {"line1": "1 66485U 25263A   25343.50002315 -.02091961  00000+0 -44237-1 0  9990", "line2": "2 66485  43.0003 144.1274 0000990 265.0389 267.8820 15.47851078  5111"}}, "geometry": {"type": "Point", "coordinates": [16.387102803250635, -36.82157431008007]}}, {"type": "Feature", "properties": {"norad_id": 66486, "name": "STARLINK-34844", "group": "last-30-days", "lat": -39.48432008257615, "lon": 25.053324653806055, "alt_km": 417.39730802753456, "timestamp": "2025-12-09T16:56:35.358430+00:00", "meta": {"OBJECT_NAME": "STARLINK-34844", "OBJECT_ID": "2025-263B", "EPOCH": "2025-12-09T12:00:02.000160", "MEAN_MOTION": 15.50553178, "ECCENTRICITY": 0.0001509, "INCLINATION": 43.0003, "RA_OF_ASC_NODE": 144.1144, "ARG_OF_PERICENTER": 270.3249, "MEAN_ANOMALY": 267.5693, "EPHEMERIS_TYPE": 0, "CLASSIFICATION_TYPE": "U", "NORAD_CAT_ID": 66486, "ELEMENT_SET_NO": 999, "REV_AT_EPOCH": 506, "BSTAR": -0.00017612, "MEAN_MOTION_DOT": -0.0001065, "MEAN_MOTION_DDOT": 0}, "tle": {"line1": "1 66486U 25263B   25343.50002315 -.00010650  00000+0 -17612-3 0  9994", "line2": "2 66486  43.0003 144.1144 0001509 270.3249 267.5693 15.50553178  5062"}}, "geometry": {"type": "Point", "coordinates": [25.053324653806055, -39.48432008257615]}}, {"type": "Feature", "properties": {"norad_id": 66487, "name": "STARLINK-34733", "group": "last-30-days", "lat": -40.067097503615194, "lon": 27.40415764094169, "alt_km": 417.64165760875494, "timestamp": "2025-12-09T16:56:35.358440+00:00", "meta": {"OBJECT_NAME": "STARLINK-34733", "OBJECT_ID": "2025-263C", "EPOCH": "2025-12-09T06:00:02.000160", "MEAN_MOTION": 15.50684599, "ECCENTRICITY": 0.00014357, "INCLINATION": 43.0007, "RA_OF_ASC_NODE": 145.5711, "ARG_OF_PERICENTER": 268.7624, "MEAN_ANOMALY": 313.819, "EPHEMERIS_TYPE": 0, "CLASSIFICATION_TYPE": "U", "NORAD_CAT_ID": 66487, "ELEMENT_SET_NO": 999, "REV_AT_EPOCH": 507, "BSTAR": -0.0038689108, "MEAN_MOTION_DOT": -0.00221836, "MEAN_MOTION_DDOT": 0}, "tle": {"line1": "1 66487U 25263C   25343.25002315 -.00221836  00000+0 -38689-2 0  9993", "line2": "2 66487  43.0007 145.5711 0001435 268.7624 313.8190 15.50684599  5078"}}, "geometry": {"type": "Point", "coordinates": [27.40415764094169, -40.067097503615194]}}, {"type": "Feature", "properties": {"norad_id": 66488, "name": "STARLINK-35515", "group": "last-30-days", "lat": -40.61041980751688, "lon": 29.843323830466815, "alt_km": 417.4319542691019, "timestamp": "2025-12-09T16:56:35.358450+00:00", "meta": {"OBJECT_NAME": "STARLINK-35515", "OBJECT_ID": "2025-263D", "EPOCH": "2025-12-09T12:00:02.000160", "MEAN_MOTION": 15.50598526, "ECCENTRICITY": 0.000137, "INCLINATION": 43.0003, "RA_OF_ASC_NODE": 144.1049, "ARG_OF_PERICENTER": 266.0176, "MEAN_ANOMALY": 275.6982, "EPHEMERIS_TYPE": 0, "CLASSIFICATION_TYPE": "U", "NORAD_CAT_ID": 66488, "ELEMENT_SET_NO": 999, "REV_AT_EPOCH": 511, "BSTAR": -0.0012978, "MEAN_MOTION_DOT": -0.00075797, "MEAN_MOTION_DDOT": 0}, "tle": {"line1": "1 66488U 25263D   25343.50002315 -.00075797  00000+0 -12978-2 0  9998", "line2": "2 66488  43.0003 144.1049 0001370 266.0176 275.6982 15.50598526  5118"}}, "geometry": {"type": "Point", "coordinates": [29.843323830466815, -40.61041980751688]}}, {"type": "Feature", "properties": {"norad_id": 66489, "name": "STARLINK-35696", "group": "last-30-days", "lat": -41.09068585664247, "lon": 32.25952574148088, "alt_km": 417.33396075101336, "timestamp": "2025-12-09T16:56:35.358462+00:00", "meta": {"OBJECT_NAME": "STARLINK-35696", "OBJECT_ID": "2025-263E", "EPOCH": "2025-12-09T12:00:02.000160", "MEAN_MOTION": 15.50550757, "ECCENTRICITY": 0.0001593, "INCLINATION": 43.0003, "RA_OF_ASC_NODE": 144.1002, "ARG_OF_PERICENTER": 269.0208, "MEAN_ANOMALY": 274.6113, "EPHEMERIS_TYPE": 0, "CLASSIFICATION_TYPE": "U", "NORAD_CAT_ID": 66489, "ELEMENT_SET_NO": 999, "REV_AT_EPOCH": 511, "BSTAR": 0.00050546, "MEAN_MOTION_DOT": 0.00029393, "MEAN_MOTION_DDOT": 0}, "tle": {"line1": "1 66489U 25263E   25343.50002315  .00029393  00000+0  50546-3 0  9992", "line2": "2 66489  43.0003 144.1002 0001593 269.0208 274.6113 15.50550757  5113"}}, "geometry": {"type": "Point", "coordinates": [32.25952574148088, -41.09068585664247]}}, {"type": "Feature", "properties": {"norad_id": 66490, "name": "STARLINK-35693", "group": "last-30-days", "lat": -41.524385291037255, "lon": 34.73917895236109, "alt_km": 417.32305908302806, "timestamp": "2025-12-09T16:56:35.358472+00:00", "meta": {"OBJECT_NAME": "STARLINK-35693", "OBJECT_ID": "2025-263F", "EPOCH": "2025-12-09T12:00:02.000160", "MEAN_MOTION": 15.50560794, "ECCENTRICITY": 0.0001588, "INCLINATION": 43.0003, "RA_OF_ASC_NODE": 144.0957, "ARG_OF_PERICENTER": 268.2336, "MEAN_ANOMALY": 277.3102, "EPHEMERIS_TYPE": 0, "CLASSIFICATION_TYPE": "U", "NORAD_CAT_ID": 66490, "ELEMENT_SET_NO": 999, "REV_AT_EPOCH": 511, "BSTAR": 0.00035722, "MEAN_MOTION_DOT": 0.00020656, "MEAN_MOTION_DDOT": 0}, "tle": {"line1": "1 66490U 25263F   25343.50002315  .00020656  00000+0  35722-3 0  9996", "line2": "2 66490  43.0003 144.0957 0001588 268.2336 277.3102 15.50560794  5110"}}, "geometry": {"type": "Point", "coordinates": [34.73917895236109, -41.524385291037255]}}, {"type": "Feature", "properties": {"norad_id": 66491, "name": "STARLINK-35663", "group": "last-30-days", "lat": -42.23068077733282, "lon": 39.810834809812974, "alt_km": 417.40770073995736, "timestamp": "2025-12-09T16:56:35.358483+00:00", "meta": {"OBJECT_NAME": "STARLINK-35663", "OBJECT_ID": "2025-263G", "EPOCH": "2025-12-09T12:00:02.000160", "MEAN_MOTION": 15.50560913, "ECCENTRICITY": 0.0001568, "INCLINATION": 43.0004, "RA_OF_ASC_NODE": 144.0857, "ARG_OF_PERICENTER": 267.483, "MEAN_ANOMALY": 281.9218, "EPHEMERIS_TYPE": 0, "CLASSIFICATION_TYPE": "U", "NORAD_CAT_ID": 66491, "ELEMENT_SET_NO": 999, "REV_AT_EPOCH": 511, "BSTAR": -0.00054973, "MEAN_MOTION_DOT": -0.00032438, "MEAN_MOTION_DDOT": 0}, "tle": {"line1": "1 66491U 25263G   25343.50002315 -.00032438  00000+0 -54973-3 0  9999", "line2": "2 66491  43.0004 144.0857 0001568 267.4830 281.9218 15.50560913  5111"}}, "geometry": {"type": "Point", "coordinates": [39.810834809812974, -42.23068077733282]}}, {"type": "Feature", "properties": {"norad_id": 66492, "name": "STARLINK-35673", "group": "last-30-days", "lat": -42.14337957065242, "lon": 39.07666941755863, "alt_km": 424.6744444755859, "timestamp": "2025-12-09T16:56:35.358493+00:00", "meta": {"OBJECT_NAME": "STARLINK-35673", "OBJECT_ID": "2025-263H", "EPOCH": "2025-12-09T12:00:02.000160", "MEAN_MOTION": 15.49031773, "ECCENTRICITY": 0.0001149, "INCLINATION": 43.0004, "RA_OF_ASC_NODE": 144.0826, "ARG_OF_PERICENTER": 283.4389, "MEAN_ANOMALY": 266.8932, "EPHEMERIS_TYPE": 0, "CLASSIFICATION_TYPE": "U", "NORAD_CAT_ID": 66492, "ELEMENT_SET_NO": 999, "REV_AT_EPOCH": 511, "BSTAR": -0.041061, "MEAN_MOTION_DOT": -0.02032087, "MEAN_MOTION_DDOT": 0}, "tle": {"line1": "1 66492U 25263H   25343.50002315 -.02032087  00000+0 -41061-1 0  9994", "line2": "2 66492  43.0004 144.0826 0001149 283.4389 266.8932 15.49031773  5110"}}, "geometry": {"type": "Point", "coordinates": [39.07666941755863, -42.14337957065242]}}]}